start=new Date('2022-11-24T00:00:00.000Z').valueOf();
sats=[{"NORAD_CAT_ID":"52583","RCS_SIZE":"LARGE","BSTAR":"0.00001957300000","COUNTRY_CODE":"US","LAUNCH_DATE":"2022-05-13","INCLINATION":"53.2185","ARG_OF_PERICENTER":"41.3968","TLE_LINE1":"1 52583U 22051AZ  22327.81065498  .00000023  00000-0  19573-4 0  9994","MEAN_ELEMENT_THEORY":"SGP4","APOAPSIS":"540.934","SITE":"AFWTR","PERIAPSIS":"538.586","ELEMENT_SET_NO":"999","OBJECT_TYPE":"PAYLOAD","FILE":"3668355","CLASSIFICATION_TYPE":"U","REF_FRAME":"TEME","RA_OF_ASC_NODE":"114.5675","GP_ID":"218603001","EPHEMERIS_TYPE":"0","MEAN_MOTION":"15.08835368","MEAN_MOTION_DOT":"0.00000023","EPOCH":"2022-11-23T19:27:20.590272","SEMIMAJOR_AXIS":"6917.895","TLE_LINE2":"2 52583  53.2185 114.5675 0001697  41.3968 318.7153 15.08835368 30145","REV_AT_EPOCH":"3014","CENTER_NAME":"EARTH","DECAY_DATE":null,"MEAN_MOTION_DDOT":"0.0000000000000","PERIOD":"95.438","OBJECT_ID":"2022-051AZ","MEAN_ANOMALY":"318.7153","ECCENTRICITY":"0.00016970","TIME_SYSTEM":"UTC","OBJECT_NAME":"STARLINK-3895"},{"TLE_LINE2":"2 52584  53.2187 115.1293 0002902  43.7727 316.3495 15.08843627 30128","SEMIMAJOR_AXIS":"6917.869","EPOCH":"2022-11-23T16:27:10.425312","MEAN_MOTION":"15.08843627","MEAN_MOTION_DOT":"0.00000695","GP_ID":"218601257","RA_OF_ASC_NODE":"115.1293","EPHEMERIS_TYPE":"0","REF_FRAME":"TEME","CLASSIFICATION_TYPE":"U","FILE":"3668355","OBJECT_TYPE":"PAYLOAD","TIME_SYSTEM":"UTC","OBJECT_NAME":"STARLINK-3922","ECCENTRICITY":"0.00029020","MEAN_ANOMALY":"316.3495","OBJECT_ID":"2022-051BA","PERIOD":"95.437","MEAN_MOTION_DDOT":"0.0000000000000","CENTER_NAME":"EARTH","DECAY_DATE":null,"REV_AT_EPOCH":"3012","ARG_OF_PERICENTER":"43.7727","INCLINATION":"53.2187","LAUNCH_DATE":"2022-05-13","COUNTRY_CODE":"US","BSTAR":"0.00006176600000","RCS_SIZE":"LARGE","NORAD_CAT_ID":"52584","PERIAPSIS":"537.727","ELEMENT_SET_NO":"999","SITE":"AFWTR","TLE_LINE1":"1 52584U 22051BA  22327.68553733  .00000695  00000-0  61766-4 0  9990","APOAPSIS":"541.742","MEAN_ELEMENT_THEORY":"SGP4"},{"MEAN_MOTION_DOT":"0.00001517","MEAN_MOTION":"15.08843567","EPOCH":"2022-11-23T17:41:21.461280","SEMIMAJOR_AXIS":"6917.869","TLE_LINE2":"2 52585  53.2185 114.9008 0002243  47.5153 312.6029 15.08843567 30137","OBJECT_TYPE":"PAYLOAD","FILE":"3668355","CLASSIFICATION_TYPE":"U","REF_FRAME":"TEME","RA_OF_ASC_NODE":"114.9008","GP_ID":"218601507","EPHEMERIS_TYPE":"0","PERIOD":"95.437","OBJECT_ID":"2022-051BB","MEAN_ANOMALY":"312.6029","ECCENTRICITY":"0.00022430","TIME_SYSTEM":"UTC","OBJECT_NAME":"STARLINK-3906","REV_AT_EPOCH":"3013","CENTER_NAME":"EARTH","DECAY_DATE":null,"MEAN_MOTION_DDOT":"0.0000000000000","BSTAR":"0.00011338000000","COUNTRY_CODE":"US","LAUNCH_DATE":"2022-05-13","INCLINATION":"53.2185","ARG_OF_PERICENTER":"47.5153","NORAD_CAT_ID":"52585","RCS_SIZE":"LARGE","ELEMENT_SET_NO":"999","PERIAPSIS":"538.183","APOAPSIS":"541.286","TLE_LINE1":"1 52585U 22051BB  22327.73705395  .00001517  00000-0  11338-3 0  9993","MEAN_ELEMENT_THEORY":"SGP4","SITE":"AFWTR"},{"RCS_SIZE":"LARGE","NORAD_CAT_ID":"52586","LAUNCH_DATE":"2022-05-13","ARG_OF_PERICENTER":"44.2658","INCLINATION":"53.2187","BSTAR":"0.00001438100000","COUNTRY_CODE":"US","MEAN_ELEMENT_THEORY":"SGP4","TLE_LINE1":"1 52586U 22051BC  22327.80698267 -.00000059  00000-0  14381-4 0  9994","APOAPSIS":"541.189","SITE":"AFWTR","PERIAPSIS":"538.350","ELEMENT_SET_NO":"999","CLASSIFICATION_TYPE":"U","FILE":"3668355","GP_ID":"218602759","EPHEMERIS_TYPE":"0","RA_OF_ASC_NODE":"114.5832","REF_FRAME":"TEME","OBJECT_TYPE":"PAYLOAD","TLE_LINE2":"2 52586  53.2187 114.5832 0002052  44.2658 315.8498 15.08831996 30142","SEMIMAJOR_AXIS":"6917.905","MEAN_MOTION_DOT":"-0.00000059","MEAN_MOTION":"15.08831996","EPOCH":"2022-11-23T19:22:03.302688","MEAN_MOTION_DDOT":"0.0000000000000","CENTER_NAME":"EARTH","DECAY_DATE":null,"REV_AT_EPOCH":"3014","OBJECT_ID":"2022-051BC","TIME_SYSTEM":"UTC","OBJECT_NAME":"STARLINK-3910","MEAN_ANOMALY":"315.8498","ECCENTRICITY":"0.00020520","PERIOD":"95.438"},{"CLASSIFICATION_TYPE":"U","FILE":"3668355","GP_ID":"218602502","EPHEMERIS_TYPE":"0","RA_OF_ASC_NODE":"114.9250","REF_FRAME":"TEME","OBJECT_TYPE":"PAYLOAD","TLE_LINE2":"2 52587  53.2190 114.9250 0003024  49.1105 311.0148 15.08722722 30131","SEMIMAJOR_AXIS":"6918.239","MEAN_MOTION_DOT":"0.00029048","MEAN_MOTION":"15.08722722","EPOCH":"2022-11-23T17:36:06.814944","MEAN_MOTION_DDOT":"0.0000000000000","CENTER_NAME":"EARTH","DECAY_DATE":null,"REV_AT_EPOCH":"3013","OBJECT_ID":"2022-051BD","TIME_SYSTEM":"UTC","OBJECT_NAME":"STARLINK-3867","MEAN_ANOMALY":"311.0148","ECCENTRICITY":"0.00030240","PERIOD":"95.445","RCS_SIZE":"LARGE","NORAD_CAT_ID":"52587","LAUNCH_DATE":"2022-05-13","ARG_OF_PERICENTER":"49.1105","INCLINATION":"53.2190","BSTAR":"0.00184150000000","COUNTRY_CODE":"US","TLE_LINE1":"1 52587U 22051BD  22327.73341221  .00029048  00000-0  18415-2 0  9990","MEAN_ELEMENT_THEORY":"SGP4","APOAPSIS":"542.196","SITE":"AFWTR","ELEMENT_SET_NO":"999","PERIAPSIS":"538.012"},{"COUNTRY_CODE":"US","BSTAR":"0.00001954200000","INCLINATION":"53.2181","ARG_OF_PERICENTER":"44.0242","LAUNCH_DATE":"2022-05-13","NORAD_CAT_ID":"52588","RCS_SIZE":"LARGE","PERIAPSIS":"538.337","ELEMENT_SET_NO":"999","SITE":"AFWTR","TLE_LINE1":"1 52588U 22051BE  22327.79593268  .00000023  00000-0  19542-4 0  9993","MEAN_ELEMENT_THEORY":"SGP4","APOAPSIS":"541.145","EPOCH":"2022-11-23T19:06:08.583552","MEAN_MOTION_DOT":"0.00000023","MEAN_MOTION":"15.08841489","SEMIMAJOR_AXIS":"6917.876","TLE_LINE2":"2 52588  53.2181 114.6371 0002030  44.0242 316.0912 15.08841489 30142","OBJECT_TYPE":"PAYLOAD","REF_FRAME":"TEME","GP_ID":"218601758","RA_OF_ASC_NODE":"114.6371","EPHEMERIS_TYPE":"0","FILE":"3668355","CLASSIFICATION_TYPE":"U","PERIOD":"95.437","MEAN_ANOMALY":"316.0912","ECCENTRICITY":"0.00020300","OBJECT_NAME":"STARLINK-3917","TIME_SYSTEM":"UTC","OBJECT_ID":"2022-051BE","REV_AT_EPOCH":"3014","DECAY_DATE":null,"CENTER_NAME":"EARTH","MEAN_MOTION_DDOT":"0.0000000000000"},{"PERIOD":"95.438","ECCENTRICITY":"0.00024560","MEAN_ANOMALY":"334.7279","TIME_SYSTEM":"UTC","OBJECT_NAME":"STARLINK-4019","OBJECT_ID":"2022-052A","REV_AT_EPOCH":"2972","DECAY_DATE":null,"CENTER_NAME":"EARTH","MEAN_MOTION_DDOT":"0.0000000000000","EPOCH":"2022-11-23T21:36:31.894560","MEAN_MOTION_DOT":"-0.00001708","MEAN_MOTION":"15.08839444","SEMIMAJOR_AXIS":"6917.882","TLE_LINE2":"2 52598  53.2196 279.1599 0002456  25.3834 334.7279 15.08839444 29722","OBJECT_TYPE":"PAYLOAD","REF_FRAME":"TEME","EPHEMERIS_TYPE":"0","GP_ID":"218577916","RA_OF_ASC_NODE":"279.1599","FILE":"3668352","CLASSIFICATION_TYPE":"U","ELEMENT_SET_NO":"999","PERIAPSIS":"538.048","SITE":"AFETR","APOAPSIS":"541.446","TLE_LINE1":"1 52598U 22052A   22327.90036915 -.00001708  00000-0 -89216-4 0  9997","MEAN_ELEMENT_THEORY":"SGP4","COUNTRY_CODE":"US","BSTAR":"-0.00008921600000","INCLINATION":"53.2196","ARG_OF_PERICENTER":"25.3834","LAUNCH_DATE":"2022-05-14","NORAD_CAT_ID":"52598","RCS_SIZE":"LARGE"},{"NORAD_CAT_ID":"52599","RCS_SIZE":"LARGE","INCLINATION":"53.2187","ARG_OF_PERICENTER":"28.6997","LAUNCH_DATE":"2022-05-14","COUNTRY_CODE":"US","BSTAR":"0.00009595800000","SITE":"AFETR","TLE_LINE1":"1 52599U 22052B   22327.34793342  .00001239  00000-0  95958-4 0  9997","APOAPSIS":"542.096","MEAN_ELEMENT_THEORY":"SGP4","PERIAPSIS":"537.406","ELEMENT_SET_NO":"999","REF_FRAME":"TEME","GP_ID":"218545062","RA_OF_ASC_NODE":"276.6398","EPHEMERIS_TYPE":"0","FILE":"3668134","CLASSIFICATION_TYPE":"U","OBJECT_TYPE":"PAYLOAD","SEMIMAJOR_AXIS":"6917.886","TLE_LINE2":"2 52599  53.2187 276.6398 0003390  28.6997 331.4182 15.08838205 30145","EPOCH":"2022-11-23T08:21:01.447488","MEAN_MOTION_DOT":"0.00001239","MEAN_MOTION":"15.08838205","DECAY_DATE":null,"CENTER_NAME":"EARTH","MEAN_MOTION_DDOT":"0.0000000000000","REV_AT_EPOCH":"3014","MEAN_ANOMALY":"331.4182","ECCENTRICITY":"0.00033900","TIME_SYSTEM":"UTC","OBJECT_NAME":"STARLINK-4024","OBJECT_ID":"2022-052B","PERIOD":"95.438"},{"PERIOD":"95.438","OBJECT_ID":"2022-052C","TIME_SYSTEM":"UTC","OBJECT_NAME":"STARLINK-4026","MEAN_ANOMALY":"315.4551","ECCENTRICITY":"0.00017110","REV_AT_EPOCH":"3021","MEAN_MOTION_DDOT":"0.0000000000000","DECAY_DATE":null,"CENTER_NAME":"EARTH","MEAN_MOTION":"15.08838152","MEAN_MOTION_DOT":"0.00002002","EPOCH":"2022-11-23T19:11:26.660832","TLE_LINE2":"2 52600  53.2192 274.6121 0001711  44.6579 315.4551 15.08838152 30216","SEMIMAJOR_AXIS":"6917.886","OBJECT_TYPE":"PAYLOAD","CLASSIFICATION_TYPE":"U","FILE":"3668355","GP_ID":"218602503","RA_OF_ASC_NODE":"274.6121","EPHEMERIS_TYPE":"0","REF_FRAME":"TEME","ELEMENT_SET_NO":"999","PERIAPSIS":"538.567","MEAN_ELEMENT_THEORY":"SGP4","TLE_LINE1":"1 52600U 22052C   22327.79961413  .00002002  00000-0  14387-3 0  9990","APOAPSIS":"540.935","SITE":"AFETR","BSTAR":"0.00014387000000","COUNTRY_CODE":"US","LAUNCH_DATE":"2022-05-14","ARG_OF_PERICENTER":"44.6579","INCLINATION":"53.2192","RCS_SIZE":"LARGE","NORAD_CAT_ID":"52600"},{"MEAN_MOTION_DDOT":"0.0000000000000","CENTER_NAME":"EARTH","DECAY_DATE":null,"REV_AT_EPOCH":"3013","OBJECT_ID":"2022-052D","OBJECT_NAME":"STARLINK-4027","TIME_SYSTEM":"UTC","ECCENTRICITY":"0.00024280","MEAN_ANOMALY":"326.2594","PERIOD":"95.438","CLASSIFICATION_TYPE":"U","FILE":"3668134","RA_OF_ASC_NODE":"276.9560","GP_ID":"218544061","EPHEMERIS_TYPE":"0","REF_FRAME":"TEME","OBJECT_TYPE":"PAYLOAD","TLE_LINE2":"2 52601  53.2181 276.9560 0002428  33.8552 326.2594 15.08839673 30131","SEMIMAJOR_AXIS":"6917.881","MEAN_MOTION_DOT":"-0.00000568","MEAN_MOTION":"15.08839673","EPOCH":"2022-11-23T06:38:57.414624","TLE_LINE1":"1 52601U 22052D   22327.27705341 -.00000568  00000-0 -17546-4 0  9998","MEAN_ELEMENT_THEORY":"SGP4","APOAPSIS":"541.426","SITE":"AFETR","PERIAPSIS":"538.067","ELEMENT_SET_NO":"999","RCS_SIZE":"LARGE","NORAD_CAT_ID":"52601","LAUNCH_DATE":"2022-05-14","ARG_OF_PERICENTER":"33.8552","INCLINATION":"53.2181","BSTAR":"-0.00001754600000","COUNTRY_CODE":"US"}];
